<?xml version='1.0' encoding='UTF-8'?>
<oem xmlns:xsi="http://www.w3.org/2001/XMLSchema-instance" xsi:noNamespaceSchemaLocation="http://sanaregistry.org/r/ndmxml/ndmxml-1.0-master.xsd" id="CCSDS_OEM_VERS" version="2.0">
  <header>
    <CREATION_DATE>2019-11-23T22:13:47</CREATION_DATE>
    <ORIGINATOR>N/A</ORIGINATOR>
  </header>
  <body>
    <segment>
      <metadata>
        <OBJECT_NAME>ISS (ZARYA)</OBJECT_NAME>
        <OBJECT_ID>1998-067A</OBJECT_ID>
        <CENTER_NAME>EARTH</CENTER_NAME>
        <REF_FRAME>TEME</REF_FRAME>
        <TIME_SYSTEM>UTC</TIME_SYSTEM>
        <START_TIME>2008-09-20T12:25:40.104192</START_TIME>
        <STOP_TIME>2008-09-20T14:25:40.104192</STOP_TIME>
      </metadata>
      <data>
        <stateVector>
          <EPOCH>2008-09-20T12:25:40.104192</EPOCH>
          <X>4083.902464</X>
          <Y>-993.632000</Y>
          <Z>5243.603665</Z>
          <X_DOT>2.512837</X_DOT>
          <Y_DOT>7.259889</Y_DOT>
          <Z_DOT>-0.583779</Z_DOT>
        </stateVector>
        <stateVector>
          <EPOCH>2008-09-20T12:28:40.104192</EPOCH>
          <X>4446.682604</X>
          <Y>324.930081</Y>
          <Z>5028.090339</Z>
          <X_DOT>1.503730</X_DOT>
          <Y_DOT>7.338981</Y_DOT>
          <Z_DOT>-1.802406</Z_DOT>
        </stateVector>
        <stateVector>
          <EPOCH>2008-09-20T12:31:40.104192</EPOCH>
          <X>4621.397102</X>
          <Y>1629.746327</Y>
          <Z>4599.304773</Z>
          <X_DOT>0.430591</X_DOT>
          <Y_DOT>7.107649</Y_DOT>
          <Z_DOT>-2.945072</Z_DOT>
        </stateVector>
        <stateVector>
          <EPOCH>2008-09-20T12:34:40.104192</EPOCH>
          <X>4600.571929</X>
          <Y>2865.602021</Y>
          <Z>3975.349794</Z>
          <X_DOT>-0.661242</X_DOT>
          <Y_DOT>6.575412</Y_DOT>
          <Z_DOT>-3.963237</Z_DOT>
        </stateVector>
        <stateVector>
          <EPOCH>2008-09-20T12:37:40.104192</EPOCH>
          <X>4385.008276</X>
          <Y>3980.156563</Y>
          <Z>3182.633358</Z>
          <X_DOT>-1.725479</X_DOT>
          <Y_DOT>5.764603</Y_DOT>
          <Z_DOT>-4.813497</Z_DOT>
        </stateVector>
        <stateVector>
          <EPOCH>2008-09-20T12:40:40.104192</EPOCH>
          <X>3983.777724</X>
          <Y>4926.185054</Y>
          <Z>2254.768787</Z>
          <X_DOT>-2.716851</X_DOT>
          <Y_DOT>4.709550</Y_DOT>
          <Z_DOT>-5.459500</Z_DOT>
        </stateVector>
        <stateVector>
          <EPOCH>2008-09-20T12:43:40.104192</EPOCH>
          <X>3413.859123</X>
          <Y>5663.620893</Y>
          <Z>1231.150896</Z>
          <X_DOT>-3.593103</X_DOT>
          <Y_DOT>3.455190</Y_DOT>
          <Z_DOT>-5.873621</Z_DOT>
        </stateVector>
        <stateVector>
          <EPOCH>2008-09-20T12:46:40.104192</EPOCH>
          <X>2699.420566</X>
          <Y>6161.301305</Y>
          <Z>155.260192</Z>
          <X_DOT>-4.316915</X_DOT>
          <Y_DOT>2.055142</Y_DOT>
          <Z_DOT>-6.038263</Z_DOT>
        </stateVector>
        <stateVector>
          <EPOCH>2008-09-20T12:49:40.104192</EPOCH>
          <X>1870.774288</X>
          <Y>6398.318451</Y>
          <Z>-927.224362</Z>
          <X_DOT>-4.857602</X_DOT>
          <Y_DOT>0.569297</Y_DOT>
          <Z_DOT>-5.946690</Z_DOT>
        </stateVector>
        <stateVector>
          <EPOCH>2008-09-20T12:52:40.104192</EPOCH>
          <X>963.051607</X>
          <Y>6364.905826</Y>
          <Z>-1970.414096</Z>
          <X_DOT>-5.192495</X_DOT>
          <Y_DOT>-0.938921</Y_DOT>
          <Z_DOT>-5.603303</Z_DOT>
        </stateVector>
        <stateVector>
          <EPOCH>2008-09-20T12:55:40.104192</EPOCH>
          <X>14.667968</X>
          <Y>6062.814340</Y>
          <Z>-2930.196340</Z>
          <X_DOT>-5.307898</X_DOT>
          <Y_DOT>-2.405451</Y_DOT>
          <Z_DOT>-5.023347</Z_DOT>
        </stateVector>
        <stateVector>
          <EPOCH>2008-09-20T12:58:40.104192</EPOCH>
          <X>-934.343798</X>
          <Y>5505.168129</Y>
          <Z>-3766.120395</Z>
          <X_DOT>-5.199568</X_DOT>
          <Y_DOT>-3.768445</Y_DOT>
          <Z_DOT>-4.232079</Z_DOT>
        </stateVector>
        <stateVector>
          <EPOCH>2008-09-20T13:01:40.104192</EPOCH>
          <X>-1844.042731</X>
          <Y>4715.823893</Y>
          <Z>-4443.090519</Z>
          <X_DOT>-4.872732</X_DOT>
          <Y_DOT>-4.970910</Y_DOT>
          <Z_DOT>-3.263499</Z_DOT>
        </stateVector>
        <stateVector>
          <EPOCH>2008-09-20T13:04:40.104192</EPOCH>
          <X>-2676.252828</X>
          <Y>3728.286282</Y>
          <Z>-4932.798923</Z>
          <X_DOT>-4.341683</X_DOT>
          <Y_DOT>-5.962994</Y_DOT>
          <Z_DOT>-2.158749</Z_DOT>
        </stateVector>
        <stateVector>
          <EPOCH>2008-09-20T13:07:40.104192</EPOCH>
          <X>-3396.132523</X>
          <Y>2584.245378</Y>
          <Z>-5214.851625</Z>
          <X_DOT>-3.629021</X_DOT>
          <Y_DOT>-6.703870</Y_DOT>
          <Z_DOT>-0.964302</Z_DOT>
        </stateVector>
        <stateVector>
          <EPOCH>2008-09-20T13:10:40.104192</EPOCH>
          <X>-3973.581416</X>
          <Y>1331.815891</Y>
          <Z>-5277.556509</Z>
          <X_DOT>-2.764640</X_DOT>
          <Y_DOT>-7.163190</Y_DOT>
          <Z_DOT>0.269951</Z_DOT>
        </stateVector>
        <stateVector>
          <EPOCH>2008-09-20T13:13:40.104192</EPOCH>
          <X>-4384.445296</X>
          <Y>23.550466</Y>
          <Z>-5118.363252</Z>
          <X_DOT>-1.784496</X_DOT>
          <Y_DOT>-7.322132</Y_DOT>
          <Z_DOT>1.492652</Z_DOT>
        </stateVector>
        <stateVector>
          <EPOCH>2008-09-20T13:16:40.104192</EPOCH>
          <X>-4611.485054</X>
          <Y>-1285.699209</Y>
          <Z>-4743.950862</Z>
          <X_DOT>-0.729228</X_DOT>
          <Y_DOT>-7.174063</Y_DOT>
          <Z_DOT>2.652940</Z_DOT>
        </stateVector>
        <stateVector>
          <EPOCH>2008-09-20T13:19:40.104192</EPOCH>
          <X>-4645.083540</X>
          <Y>-2541.010297</Y>
          <Z>-4169.963408</Z>
          <X_DOT>0.357384</X_DOT>
          <Y_DOT>-6.724831</Y_DOT>
          <Z_DOT>3.702386</Z_DOT>
        </stateVector>
        <stateVector>
          <EPOCH>2008-09-20T13:22:40.104192</EPOCH>
          <X>-4483.663382</X>
          <Y>-3689.630755</Y>
          <Z>-3420.399045</Z>
          <X_DOT>1.430078</X_DOT>
          <Y_DOT>-5.992658</Y_DOT>
          <Z_DOT>4.596909</Z_DOT>
        </stateVector>
        <stateVector>
          <EPOCH>2008-09-20T13:25:40.104192</EPOCH>
          <X>-4133.794212</X>
          <Y>-4683.164832</Y>
          <Z>-2526.661729</Z>
          <X_DOT>2.443897</X_DOT>
          <Y_DOT>-5.007591</Y_DOT>
          <Z_DOT>5.298597</Z_DOT>
        </stateVector>
        <stateVector>
          <EPOCH>2008-09-20T13:28:40.104192</EPOCH>
          <X>-3609.971567</X>
          <Y>-5479.615268</Y>
          <Z>-1526.297610</Z>
          <X_DOT>3.356046</X_DOT>
          <Y_DOT>-3.810467</Y_DOT>
          <Z_DOT>5.777381</Z_DOT>
        </stateVector>
        <stateVector>
          <EPOCH>2008-09-20T13:31:40.104192</EPOCH>
          <X>-2934.059087</X>
          <Y>-6045.194803</Y>
          <Z>-461.449620</Z>
          <X_DOT>4.127752</X_DOT>
          <Y_DOT>-2.451365</Y_DOT>
          <Z_DOT>6.012455</Z_DOT>
        </stateVector>
        <stateVector>
          <EPOCH>2008-09-20T13:34:40.104192</EPOCH>
          <X>-2134.404723</X>
          <Y>-6355.810710</Y>
          <Z>622.909564</Z>
          <X_DOT>4.726019</X_DOT>
          <Y_DOT>-0.987549</Y_DOT>
          <Z_DOT>5.993323</Z_DOT>
        </stateVector>
        <stateVector>
          <EPOCH>2008-09-20T13:37:40.104192</EPOCH>
          <X>-1244.659051</X>
          <Y>-6398.142795</Y>
          <Z>1680.893769</Z>
          <X_DOT>5.125155</X_DOT>
          <Y_DOT>0.518989</Y_DOT>
          <Z_DOT>5.720383</Z_DOT>
        </stateVector>
        <stateVector>
          <EPOCH>2008-09-20T13:40:40.104192</EPOCH>
          <X>-302.347805</X>
          <Y>-6170.249938</Y>
          <Z>2667.675635</Z>
          <X_DOT>5.307970</X_DOT>
          <Y_DOT>2.004277</Y_DOT>
          <Z_DOT>5.204973</Z_DOT>
        </stateVector>
        <stateVector>
          <EPOCH>2008-09-20T13:43:40.104192</EPOCH>
          <X>652.736161</X>
          <Y>-5681.669803</Y>
          <Z>3541.421025</Z>
          <X_DOT>5.266551</X_DOT>
          <Y_DOT>3.405222</Y_DOT>
          <Z_DOT>4.468880</Z_DOT>
        </stateVector>
        <stateVector>
          <EPOCH>2008-09-20T13:46:40.104192</EPOCH>
          <X>1580.238051</X>
          <Y>-4953.007966</Y>
          <Z>4265.085772</Z>
          <X_DOT>5.002582</X_DOT>
          <Y_DOT>4.662392</Y_DOT>
          <Z_DOT>3.543335</Z_DOT>
        </stateVector>
        <stateVector>
          <EPOCH>2008-09-20T13:49:40.104192</EPOCH>
          <X>2440.962450</X>
          <Y>-4015.045319</Y>
          <Z>4807.993735</Z>
          <X_DOT>4.527208</X_DOT>
          <Y_DOT>5.722567</Y_DOT>
          <Z_DOT>2.467599</Z_DOT>
        </stateVector>
        <stateVector>
          <EPOCH>2008-09-20T13:52:40.104192</EPOCH>
          <X>3198.534420</X>
          <Y>-2907.413304</Y>
          <Z>5147.130765</Z>
          <X_DOT>3.860491</X_DOT>
          <Y_DOT>6.540956</Y_DOT>
          <Z_DOT>1.287226</Z_DOT>
        </stateVector>
        <stateVector>
          <EPOCH>2008-09-20T13:55:40.104192</EPOCH>
          <X>3820.927739</X>
          <Y>-1676.908758</Y>
          <Z>5268.104550</Z>
          <X_DOT>3.030513</X_DOT>
          <Y_DOT>7.082997</Y_DOT>
          <Z_DOT>0.052125</Z_DOT>
        </stateVector>
        
      </data>
    </segment>
  </body>
</oem>
